[{"id":1,"province_id":1,"name":"Bali","key_name":"bali","cities":[{"id":1,"city_id":17,"branch_id":0,"province_id":1,"name":"Badung","key_name":"bali.kabupaten-badung","postal_code":"80351","type":1},{"id":2,"city_id":32,"branch_id":0,"province_id":1,"name":"Bangli","key_name":"bali.kabupaten-bangli","postal_code":"80619","type":1},{"id":3,"city_id":94,"branch_id":0,"province_id":1,"name":"Buleleng","key_name":"bali.kabupaten-buleleng","postal_code":"81111","type":1},{"id":4,"city_id":114,"branch_id":0,"province_id":1,"name":"Denpasar","key_name":"bali.kota-denpasar","postal_code":"80227","type":0},{"id":5,"city_id":128,"branch_id":0,"province_id":1,"name":"Gianyar","key_name":"bali.kabupaten-gianyar","postal_code":"80519","type":1},{"id":6,"city_id":161,"branch_id":0,"province_id":1,"name":"Jembrana","key_name":"bali.kabupaten-jembrana","postal_code":"82251","type":1},{"id":7,"city_id":170,"branch_id":0,"province_id":1,"name":"Karangasem","key_name":"bali.kabupaten-karangasem","postal_code":"80819","type":1},{"id":8,"city_id":197,"branch_id":0,"province_id":1,"name":"Klungkung","key_name":"bali.kabupaten-klungkung","postal_code":"80719","type":1},{"id":9,"city_id":447,"branch_id":0,"province_id":1,"name":"Tabanan","key_name":"bali.kabupaten-tabanan","postal_code":"82119","type":1}]},{"id":2,"province_id":2,"name":"Bangka Belitung","key_name":"bangka-belitung","cities":[{"id":10,"city_id":27,"branch_id":0,"province_id":2,"name":"Bangka","key_name":"bangka-belitung.kabupaten-bangka","postal_code":"33212","type":1},{"id":11,"city_id":28,"branch_id":0,"province_id":2,"name":"Bangka Barat","key_name":"bangka-belitung.kabupaten-bangka-barat","postal_code":"33315","type":1},{"id":12,"city_id":29,"branch_id":0,"province_id":2,"name":"Bangka Selatan","key_name":"bangka-belitung.kabupaten-bangka-selatan","postal_code":"33719","type":1},{"id":13,"city_id":30,"branch_id":0,"province_id":2,"name":"Bangka Tengah","key_name":"bangka-belitung.kabupaten-bangka-tengah","postal_code":"33613","type":1},{"id":14,"city_id":56,"branch_id":0,"province_id":2,"name":"Belitung","key_name":"bangka-belitung.kabupaten-belitung","postal_code":"33419","type":1},{"id":15,"city_id":57,"branch_id":0,"province_id":2,"name":"Belitung Timur","key_name":"bangka-belitung.kabupaten-belitung-timur","postal_code":"33519","type":1},{"id":16,"city_id":334,"branch_id":0,"province_id":2,"name":"Pangkal Pinang","key_name":"bangka-belitung.kota-pangkal-pinang","postal_code":"33115","type":0}]},{"id":3,"province_id":3,"name":"Banten","key_name":"banten","cities":[{"id":17,"city_id":106,"branch_id":0,"province_id":3,"name":"Cilegon","key_name":"banten.kota-cilegon","postal_code":"42417","type":0},{"id":18,"city_id":232,"branch_id":0,"province_id":3,"name":"Lebak","key_name":"banten.kabupaten-lebak","postal_code":"42319","type":1},{"id":19,"city_id":331,"branch_id":0,"province_id":3,"name":"Pandeglang","key_name":"banten.kabupaten-pandeglang","postal_code":"42212","type":1},{"id":20,"city_id":402,"branch_id":0,"province_id":3,"name":"Serang","key_name":"banten.kabupaten-serang","postal_code":"42182","type":1},{"id":21,"city_id":403,"branch_id":0,"province_id":3,"name":"Serang","key_name":"banten.kota-serang","postal_code":"42111","type":0},{"id":22,"city_id":455,"branch_id":0,"province_id":3,"name":"Tangerang","key_name":"banten.kabupaten-tangerang","postal_code":"15914","type":1},{"id":23,"city_id":456,"branch_id":0,"province_id":3,"name":"Tangerang","key_name":"banten.kota-tangerang","postal_code":"15111","type":0},{"id":24,"city_id":457,"branch_id":0,"province_id":3,"name":"Tangerang Selatan","key_name":"banten.kota-tangerang-selatan","postal_code":"15332","type":0}]},{"id":4,"province_id":4,"name":"Bengkulu","key_name":"bengkulu","cities":[{"id":25,"city_id":62,"branch_id":0,"province_id":4,"name":"Bengkulu","key_name":"bengkulu.kota-bengkulu","postal_code":"38229","type":0},{"id":26,"city_id":63,"branch_id":0,"province_id":4,"name":"Bengkulu Selatan","key_name":"bengkulu.kabupaten-bengkulu-selatan","postal_code":"38519","type":1},{"id":27,"city_id":64,"branch_id":0,"province_id":4,"name":"Bengkulu Tengah","key_name":"bengkulu.kabupaten-bengkulu-tengah","postal_code":"38319","type":1},{"id":28,"city_id":65,"branch_id":0,"province_id":4,"name":"Bengkulu Utara","key_name":"bengkulu.kabupaten-bengkulu-utara","postal_code":"38619","type":1},{"id":29,"city_id":175,"branch_id":0,"province_id":4,"name":"Kaur","key_name":"bengkulu.kabupaten-kaur","postal_code":"38911","type":1},{"id":30,"city_id":183,"branch_id":0,"province_id":4,"name":"Kepahiang","key_name":"bengkulu.kabupaten-kepahiang","postal_code":"39319","type":1},{"id":31,"city_id":233,"branch_id":0,"province_id":4,"name":"Lebong","key_name":"bengkulu.kabupaten-lebong","postal_code":"39264","type":1},{"id":32,"city_id":294,"branch_id":0,"province_id":4,"name":"Muko Muko","key_name":"bengkulu.kabupaten-muko-muko","postal_code":"38715","type":1},{"id":33,"city_id":379,"branch_id":0,"province_id":4,"name":"Rejang Lebong","key_name":"bengkulu.kabupaten-rejang-lebong","postal_code":"39112","type":1},{"id":34,"city_id":397,"branch_id":0,"province_id":4,"name":"Seluma","key_name":"bengkulu.kabupaten-seluma","postal_code":"38811","type":1}]},{"id":5,"province_id":5,"name":"DI Yogyakarta","key_name":"di-yogyakarta","cities":[{"id":35,"city_id":39,"branch_id":0,"province_id":5,"name":"Bantul","key_name":"di-yogyakarta.kabupaten-bantul","postal_code":"55715","type":1},{"id":36,"city_id":135,"branch_id":0,"province_id":5,"name":"Gunung Kidul","key_name":"di-yogyakarta.kabupaten-gunung-kidul","postal_code":"55812","type":1},{"id":37,"city_id":210,"branch_id":0,"province_id":5,"name":"Kulon Progo","key_name":"di-yogyakarta.kabupaten-kulon-progo","postal_code":"55611","type":1},{"id":38,"city_id":419,"branch_id":0,"province_id":5,"name":"Sleman","key_name":"di-yogyakarta.kabupaten-sleman","postal_code":"55513","type":1},{"id":39,"city_id":501,"branch_id":0,"province_id":5,"name":"Yogyakarta","key_name":"di-yogyakarta.kota-yogyakarta","postal_code":"55222","type":0}]},{"id":6,"province_id":6,"name":"DKI Jakarta","key_name":"dki-jakarta","cities":[{"id":40,"city_id":151,"branch_id":0,"province_id":6,"name":"Jakarta Barat","key_name":"dki-jakarta.kota-jakarta-barat","postal_code":"11220","type":0},{"id":41,"city_id":152,"branch_id":0,"province_id":6,"name":"Jakarta Pusat","key_name":"dki-jakarta.kota-jakarta-pusat","postal_code":"10540","type":0},{"id":42,"city_id":153,"branch_id":0,"province_id":6,"name":"Jakarta Selatan","key_name":"dki-jakarta.kota-jakarta-selatan","postal_code":"12230","type":0},{"id":43,"city_id":154,"branch_id":0,"province_id":6,"name":"Jakarta Timur","key_name":"dki-jakarta.kota-jakarta-timur","postal_code":"13330","type":0},{"id":44,"city_id":155,"branch_id":0,"province_id":6,"name":"Jakarta Utara","key_name":"dki-jakarta.kota-jakarta-utara","postal_code":"14140","type":0},{"id":45,"city_id":189,"branch_id":0,"province_id":6,"name":"Kepulauan Seribu","key_name":"dki-jakarta.kabupaten-kepulauan-seribu","postal_code":"14550","type":1}]},{"id":7,"province_id":7,"name":"Gorontalo","key_name":"gorontalo","cities":[{"id":46,"city_id":77,"branch_id":0,"province_id":7,"name":"Boalemo","key_name":"gorontalo.kabupaten-boalemo","postal_code":"96319","type":1},{"id":47,"city_id":88,"branch_id":0,"province_id":7,"name":"Bone Bolango","key_name":"gorontalo.kabupaten-bone-bolango","postal_code":"96511","type":1},{"id":48,"city_id":129,"branch_id":0,"province_id":7,"name":"Gorontalo","key_name":"gorontalo.kabupaten-gorontalo","postal_code":"96218","type":1},{"id":49,"city_id":130,"branch_id":0,"province_id":7,"name":"Gorontalo","key_name":"gorontalo.kota-gorontalo","postal_code":"96115","type":0},{"id":50,"city_id":131,"branch_id":0,"province_id":7,"name":"Gorontalo Utara","key_name":"gorontalo.kabupaten-gorontalo-utara","postal_code":"96611","type":1},{"id":51,"city_id":361,"branch_id":0,"province_id":7,"name":"Pohuwato","key_name":"gorontalo.kabupaten-pohuwato","postal_code":"96419","type":1}]},{"id":8,"province_id":8,"name":"Jambi","key_name":"jambi","cities":[{"id":52,"city_id":50,"branch_id":0,"province_id":8,"name":"Batang Hari","key_name":"jambi.kabupaten-batang-hari","postal_code":"36613","type":1},{"id":53,"city_id":97,"branch_id":0,"province_id":8,"name":"Bungo","key_name":"jambi.kabupaten-bungo","postal_code":"37216","type":1},{"id":54,"city_id":156,"branch_id":0,"province_id":8,"name":"Jambi","key_name":"jambi.kota-jambi","postal_code":"36111","type":0},{"id":55,"city_id":194,"branch_id":0,"province_id":8,"name":"Kerinci","key_name":"jambi.kabupaten-kerinci","postal_code":"37167","type":1},{"id":56,"city_id":280,"branch_id":0,"province_id":8,"name":"Merangin","key_name":"jambi.kabupaten-merangin","postal_code":"37319","type":1},{"id":57,"city_id":293,"branch_id":0,"province_id":8,"name":"Muaro Jambi","key_name":"jambi.kabupaten-muaro-jambi","postal_code":"36311","type":1},{"id":58,"city_id":393,"branch_id":0,"province_id":8,"name":"Sarolangun","key_name":"jambi.kabupaten-sarolangun","postal_code":"37419","type":1},{"id":59,"city_id":442,"branch_id":0,"province_id":8,"name":"Sungaipenuh","key_name":"jambi.kota-sungaipenuh","postal_code":"37113","type":0},{"id":60,"city_id":460,"branch_id":0,"province_id":8,"name":"Tanjung Jabung Barat","key_name":"jambi.kabupaten-tanjung-jabung-barat","postal_code":"36513","type":1},{"id":61,"city_id":461,"branch_id":0,"province_id":8,"name":"Tanjung Jabung Timur","key_name":"jambi.kabupaten-tanjung-jabung-timur","postal_code":"36719","type":1},{"id":62,"city_id":471,"branch_id":0,"province_id":8,"name":"Tebo","key_name":"jambi.kabupaten-tebo","postal_code":"37519","type":1}]},{"id":9,"province_id":9,"name":"Jawa Barat","key_name":"jawa-barat","cities":[{"id":63,"city_id":22,"branch_id":0,"province_id":9,"name":"Bandung","key_name":"jawa-barat.kabupaten-bandung","postal_code":"40311","type":1},{"id":64,"city_id":23,"branch_id":0,"province_id":9,"name":"Bandung","key_name":"jawa-barat.kota-bandung","postal_code":"40111","type":0},{"id":65,"city_id":24,"branch_id":0,"province_id":9,"name":"Bandung Barat","key_name":"jawa-barat.kabupaten-bandung-barat","postal_code":"40721","type":1},{"id":66,"city_id":34,"branch_id":0,"province_id":9,"name":"Banjar","key_name":"jawa-barat.kota-banjar","postal_code":"46311","type":0},{"id":67,"city_id":54,"branch_id":0,"province_id":9,"name":"Bekasi","key_name":"jawa-barat.kabupaten-bekasi","postal_code":"17837","type":1},{"id":68,"city_id":55,"branch_id":0,"province_id":9,"name":"Bekasi","key_name":"jawa-barat.kota-bekasi","postal_code":"17121","type":0},{"id":69,"city_id":78,"branch_id":0,"province_id":9,"name":"Bogor","key_name":"jawa-barat.kabupaten-bogor","postal_code":"16911","type":1},{"id":70,"city_id":79,"branch_id":0,"province_id":9,"name":"Bogor","key_name":"jawa-barat.kota-bogor","postal_code":"16119","type":0},{"id":71,"city_id":103,"branch_id":0,"province_id":9,"name":"Ciamis","key_name":"jawa-barat.kabupaten-ciamis","postal_code":"46211","type":1},{"id":72,"city_id":104,"branch_id":0,"province_id":9,"name":"Cianjur","key_name":"jawa-barat.kabupaten-cianjur","postal_code":"43217","type":1},{"id":73,"city_id":107,"branch_id":0,"province_id":9,"name":"Cimahi","key_name":"jawa-barat.kota-cimahi","postal_code":"40512","type":0},{"id":74,"city_id":108,"branch_id":0,"province_id":9,"name":"Cirebon","key_name":"jawa-barat.kabupaten-cirebon","postal_code":"45611","type":1},{"id":75,"city_id":109,"branch_id":0,"province_id":9,"name":"Cirebon","key_name":"jawa-barat.kota-cirebon","postal_code":"45116","type":0},{"id":76,"city_id":115,"branch_id":0,"province_id":9,"name":"Depok","key_name":"jawa-barat.kota-depok","postal_code":"16416","type":0},{"id":77,"city_id":126,"branch_id":0,"province_id":9,"name":"Garut","key_name":"jawa-barat.kabupaten-garut","postal_code":"44126","type":1},{"id":78,"city_id":149,"branch_id":0,"province_id":9,"name":"Indramayu","key_name":"jawa-barat.kabupaten-indramayu","postal_code":"45214","type":1},{"id":79,"city_id":171,"branch_id":0,"province_id":9,"name":"Karawang","key_name":"jawa-barat.kabupaten-karawang","postal_code":"41311","type":1},{"id":80,"city_id":211,"branch_id":0,"province_id":9,"name":"Kuningan","key_name":"jawa-barat.kabupaten-kuningan","postal_code":"45511","type":1},{"id":81,"city_id":252,"branch_id":0,"province_id":9,"name":"Majalengka","key_name":"jawa-barat.kabupaten-majalengka","postal_code":"45412","type":1},{"id":82,"city_id":332,"branch_id":0,"province_id":9,"name":"Pangandaran","key_name":"jawa-barat.kabupaten-pangandaran","postal_code":"46511","type":1},{"id":83,"city_id":376,"branch_id":0,"province_id":9,"name":"Purwakarta","key_name":"jawa-barat.kabupaten-purwakarta","postal_code":"41119","type":1},{"id":84,"city_id":428,"branch_id":0,"province_id":9,"name":"Subang","key_name":"jawa-barat.kabupaten-subang","postal_code":"41215","type":1},{"id":85,"city_id":430,"branch_id":0,"province_id":9,"name":"Sukabumi","key_name":"jawa-barat.kabupaten-sukabumi","postal_code":"43311","type":1},{"id":86,"city_id":431,"branch_id":0,"province_id":9,"name":"Sukabumi","key_name":"jawa-barat.kota-sukabumi","postal_code":"43114","type":0},{"id":87,"city_id":440,"branch_id":0,"province_id":9,"name":"Sumedang","key_name":"jawa-barat.kabupaten-sumedang","postal_code":"45326","type":1},{"id":88,"city_id":468,"branch_id":0,"province_id":9,"name":"Tasikmalaya","key_name":"jawa-barat.kabupaten-tasikmalaya","postal_code":"46411","type":1},{"id":89,"city_id":469,"branch_id":0,"province_id":9,"name":"Tasikmalaya","key_name":"jawa-barat.kota-tasikmalaya","postal_code":"46116","type":0}]},{"id":10,"province_id":10,"name":"Jawa Tengah","key_name":"jawa-tengah","cities":[{"id":90,"city_id":37,"branch_id":0,"province_id":10,"name":"Banjarnegara","key_name":"jawa-tengah.kabupaten-banjarnegara","postal_code":"53419","type":1},{"id":91,"city_id":41,"branch_id":0,"province_id":10,"name":"Banyumas","key_name":"jawa-tengah.kabupaten-banyumas","postal_code":"53114","type":1},{"id":92,"city_id":49,"branch_id":0,"province_id":10,"name":"Batang","key_name":"jawa-tengah.kabupaten-batang","postal_code":"51211","type":1},{"id":93,"city_id":76,"branch_id":0,"province_id":10,"name":"Blora","key_name":"jawa-tengah.kabupaten-blora","postal_code":"58219","type":1},{"id":94,"city_id":91,"branch_id":0,"province_id":10,"name":"Boyolali","key_name":"jawa-tengah.kabupaten-boyolali","postal_code":"57312","type":1},{"id":95,"city_id":92,"branch_id":0,"province_id":10,"name":"Brebes","key_name":"jawa-tengah.kabupaten-brebes","postal_code":"52212","type":1},{"id":96,"city_id":105,"branch_id":0,"province_id":10,"name":"Cilacap","key_name":"jawa-tengah.kabupaten-cilacap","postal_code":"53211","type":1},{"id":97,"city_id":113,"branch_id":0,"province_id":10,"name":"Demak","key_name":"jawa-tengah.kabupaten-demak","postal_code":"59519","type":1},{"id":98,"city_id":134,"branch_id":0,"province_id":10,"name":"Grobogan","key_name":"jawa-tengah.kabupaten-grobogan","postal_code":"58111","type":1},{"id":99,"city_id":163,"branch_id":0,"province_id":10,"name":"Jepara","key_name":"jawa-tengah.kabupaten-jepara","postal_code":"59419","type":1},{"id":100,"city_id":169,"branch_id":0,"province_id":10,"name":"Karanganyar","key_name":"jawa-tengah.kabupaten-karanganyar","postal_code":"57718","type":1},{"id":101,"city_id":177,"branch_id":0,"province_id":10,"name":"Kebumen","key_name":"jawa-tengah.kabupaten-kebumen","postal_code":"54319","type":1},{"id":102,"city_id":181,"branch_id":0,"province_id":10,"name":"Kendal","key_name":"jawa-tengah.kabupaten-kendal","postal_code":"51314","type":1},{"id":103,"city_id":196,"branch_id":0,"province_id":10,"name":"Klaten","key_name":"jawa-tengah.kabupaten-klaten","postal_code":"57411","type":1},{"id":104,"city_id":209,"branch_id":0,"province_id":10,"name":"Kudus","key_name":"jawa-tengah.kabupaten-kudus","postal_code":"59311","type":1},{"id":105,"city_id":249,"branch_id":0,"province_id":10,"name":"Magelang","key_name":"jawa-tengah.kabupaten-magelang","postal_code":"56519","type":1},{"id":106,"city_id":250,"branch_id":0,"province_id":10,"name":"Magelang","key_name":"jawa-tengah.kota-magelang","postal_code":"56133","type":0},{"id":107,"city_id":344,"branch_id":0,"province_id":10,"name":"Pati","key_name":"jawa-tengah.kabupaten-pati","postal_code":"59114","type":1},{"id":108,"city_id":348,"branch_id":0,"province_id":10,"name":"Pekalongan","key_name":"jawa-tengah.kabupaten-pekalongan","postal_code":"51161","type":1},{"id":109,"city_id":349,"branch_id":0,"province_id":10,"name":"Pekalongan","key_name":"jawa-tengah.kota-pekalongan","postal_code":"51122","type":0},{"id":110,"city_id":352,"branch_id":0,"province_id":10,"name":"Pemalang","key_name":"jawa-tengah.kabupaten-pemalang","postal_code":"52319","type":1},{"id":111,"city_id":375,"branch_id":0,"province_id":10,"name":"Purbalingga","key_name":"jawa-tengah.kabupaten-purbalingga","postal_code":"53312","type":1},{"id":112,"city_id":377,"branch_id":0,"province_id":10,"name":"Purworejo","key_name":"jawa-tengah.kabupaten-purworejo","postal_code":"54111","type":1},{"id":113,"city_id":380,"branch_id":0,"province_id":10,"name":"Rembang","key_name":"jawa-tengah.kabupaten-rembang","postal_code":"59219","type":1},{"id":114,"city_id":386,"branch_id":0,"province_id":10,"name":"Salatiga","key_name":"jawa-tengah.kota-salatiga","postal_code":"50711","type":0},{"id":115,"city_id":398,"branch_id":0,"province_id":10,"name":"Semarang","key_name":"jawa-tengah.kabupaten-semarang","postal_code":"50511","type":1},{"id":116,"city_id":399,"branch_id":0,"province_id":10,"name":"Semarang","key_name":"jawa-tengah.kota-semarang","postal_code":"50135","type":0},{"id":117,"city_id":427,"branch_id":0,"province_id":10,"name":"Sragen","key_name":"jawa-tengah.kabupaten-sragen","postal_code":"57211","type":1},{"id":118,"city_id":433,"branch_id":0,"province_id":10,"name":"Sukoharjo","key_name":"jawa-tengah.kabupaten-sukoharjo","postal_code":"57514","type":1},{"id":119,"city_id":445,"branch_id":0,"province_id":10,"name":"Surakarta (Solo)","key_name":"jawa-tengah.kota-surakarta-solo","postal_code":"57113","type":0},{"id":120,"city_id":472,"branch_id":0,"province_id":10,"name":"Tegal","key_name":"jawa-tengah.kabupaten-tegal","postal_code":"52419","type":1},{"id":121,"city_id":473,"branch_id":0,"province_id":10,"name":"Tegal","key_name":"jawa-tengah.kota-tegal","postal_code":"52114","type":0},{"id":122,"city_id":476,"branch_id":0,"province_id":10,"name":"Temanggung","key_name":"jawa-tengah.kabupaten-temanggung","postal_code":"56212","type":1},{"id":123,"city_id":497,"branch_id":0,"province_id":10,"name":"Wonogiri","key_name":"jawa-tengah.kabupaten-wonogiri","postal_code":"57619","type":1},{"id":124,"city_id":498,"branch_id":0,"province_id":10,"name":"Wonosobo","key_name":"jawa-tengah.kabupaten-wonosobo","postal_code":"56311","type":1}]},{"id":11,"province_id":11,"name":"Jawa Timur","key_name":"jawa-timur","cities":[{"id":125,"city_id":31,"branch_id":0,"province_id":11,"name":"Bangkalan","key_name":"jawa-timur.kabupaten-bangkalan","postal_code":"69118","type":1},{"id":126,"city_id":42,"branch_id":0,"province_id":11,"name":"Banyuwangi","key_name":"jawa-timur.kabupaten-banyuwangi","postal_code":"68416","type":1},{"id":127,"city_id":51,"branch_id":0,"province_id":11,"name":"Batu","key_name":"jawa-timur.kota-batu","postal_code":"65311","type":0},{"id":128,"city_id":74,"branch_id":0,"province_id":11,"name":"Blitar","key_name":"jawa-timur.kabupaten-blitar","postal_code":"66171","type":1},{"id":129,"city_id":75,"branch_id":0,"province_id":11,"name":"Blitar","key_name":"jawa-timur.kota-blitar","postal_code":"66124","type":0},{"id":130,"city_id":80,"branch_id":0,"province_id":11,"name":"Bojonegoro","key_name":"jawa-timur.kabupaten-bojonegoro","postal_code":"62119","type":1},{"id":131,"city_id":86,"branch_id":0,"province_id":11,"name":"Bondowoso","key_name":"jawa-timur.kabupaten-bondowoso","postal_code":"68219","type":1},{"id":132,"city_id":133,"branch_id":0,"province_id":11,"name":"Gresik","key_name":"jawa-timur.kabupaten-gresik","postal_code":"61115","type":1},{"id":133,"city_id":160,"branch_id":0,"province_id":11,"name":"Jember","key_name":"jawa-timur.kabupaten-jember","postal_code":"68113","type":1},{"id":134,"city_id":164,"branch_id":0,"province_id":11,"name":"Jombang","key_name":"jawa-timur.kabupaten-jombang","postal_code":"61415","type":1},{"id":135,"city_id":178,"branch_id":0,"province_id":11,"name":"Kediri","key_name":"jawa-timur.kabupaten-kediri","postal_code":"64184","type":1},{"id":136,"city_id":179,"branch_id":0,"province_id":11,"name":"Kediri","key_name":"jawa-timur.kota-kediri","postal_code":"64125","type":0},{"id":137,"city_id":222,"branch_id":0,"province_id":11,"name":"Lamongan","key_name":"jawa-timur.kabupaten-lamongan","postal_code":"64125","type":1},{"id":138,"city_id":243,"branch_id":0,"province_id":11,"name":"Lumajang","key_name":"jawa-timur.kabupaten-lumajang","postal_code":"67319","type":1},{"id":139,"city_id":247,"branch_id":0,"province_id":11,"name":"Madiun","key_name":"jawa-timur.kabupaten-madiun","postal_code":"63153","type":1},{"id":140,"city_id":248,"branch_id":0,"province_id":11,"name":"Madiun","key_name":"jawa-timur.kota-madiun","postal_code":"63122","type":0},{"id":141,"city_id":251,"branch_id":0,"province_id":11,"name":"Magetan","key_name":"jawa-timur.kabupaten-magetan","postal_code":"63314","type":1},{"id":142,"city_id":256,"branch_id":0,"province_id":11,"name":"Malang","key_name":"jawa-timur.kota-malang","postal_code":"65112","type":0},{"id":143,"city_id":255,"branch_id":0,"province_id":11,"name":"Malang","key_name":"jawa-timur.kabupaten-malang","postal_code":"65163","type":1},{"id":144,"city_id":289,"branch_id":8,"province_id":11,"name":"Mojokerto","key_name":"jawa-timur.kabupaten-mojokerto","postal_code":"61382","type":1},{"id":145,"city_id":290,"branch_id":0,"province_id":11,"name":"Mojokerto","key_name":"jawa-timur.kota-mojokerto","postal_code":"61316","type":0},{"id":146,"city_id":305,"branch_id":0,"province_id":11,"name":"Nganjuk","key_name":"jawa-timur.kabupaten-nganjuk","postal_code":"64414","type":1},{"id":147,"city_id":306,"branch_id":0,"province_id":11,"name":"Ngawi","key_name":"jawa-timur.kabupaten-ngawi","postal_code":"63219","type":1},{"id":148,"city_id":317,"branch_id":0,"province_id":11,"name":"Pacitan","key_name":"jawa-timur.kabupaten-pacitan","postal_code":"63512","type":1},{"id":149,"city_id":330,"branch_id":0,"province_id":11,"name":"Pamekasan","key_name":"jawa-timur.kabupaten-pamekasan","postal_code":"69319","type":1},{"id":150,"city_id":342,"branch_id":0,"province_id":11,"name":"Pasuruan","key_name":"jawa-timur.kabupaten-pasuruan","postal_code":"67153","type":1},{"id":151,"city_id":343,"branch_id":0,"province_id":11,"name":"Pasuruan","key_name":"jawa-timur.kota-pasuruan","postal_code":"67118","type":0},{"id":152,"city_id":363,"branch_id":0,"province_id":11,"name":"Ponorogo","key_name":"jawa-timur.kabupaten-ponorogo","postal_code":"63411","type":1},{"id":153,"city_id":369,"branch_id":0,"province_id":11,"name":"Probolinggo","key_name":"jawa-timur.kabupaten-probolinggo","postal_code":"67282","type":1},{"id":154,"city_id":370,"branch_id":0,"province_id":11,"name":"Probolinggo","key_name":"jawa-timur.kota-probolinggo","postal_code":"67215","type":0},{"id":155,"city_id":390,"branch_id":0,"province_id":11,"name":"Sampang","key_name":"jawa-timur.kabupaten-sampang","postal_code":"69219","type":1},{"id":156,"city_id":409,"branch_id":0,"province_id":11,"name":"Sidoarjo","key_name":"jawa-timur.kabupaten-sidoarjo","postal_code":"61219","type":1},{"id":157,"city_id":418,"branch_id":0,"province_id":11,"name":"Situbondo","key_name":"jawa-timur.kabupaten-situbondo","postal_code":"68316","type":1},{"id":158,"city_id":441,"branch_id":0,"province_id":11,"name":"Sumenep","key_name":"jawa-timur.kabupaten-sumenep","postal_code":"69413","type":1},{"id":159,"city_id":444,"branch_id":0,"province_id":11,"name":"Surabaya","key_name":"jawa-timur.kota-surabaya","postal_code":"60119","type":0},{"id":160,"city_id":487,"branch_id":0,"province_id":11,"name":"Trenggalek","key_name":"jawa-timur.kabupaten-trenggalek","postal_code":"66312","type":1},{"id":161,"city_id":489,"branch_id":0,"province_id":11,"name":"Tuban","key_name":"jawa-timur.kabupaten-tuban","postal_code":"62319","type":1},{"id":162,"city_id":492,"branch_id":0,"province_id":11,"name":"Tulungagung","key_name":"jawa-timur.kabupaten-tulungagung","postal_code":"66212","type":1}]},{"id":12,"province_id":12,"name":"Kalimantan Barat","key_name":"kalimantan-barat","cities":[{"id":163,"city_id":61,"branch_id":0,"province_id":12,"name":"Bengkayang","key_name":"kalimantan-barat.kabupaten-bengkayang","postal_code":"79213","type":1},{"id":164,"city_id":168,"branch_id":0,"province_id":12,"name":"Kapuas Hulu","key_name":"kalimantan-barat.kabupaten-kapuas-hulu","postal_code":"78719","type":1},{"id":165,"city_id":176,"branch_id":0,"province_id":12,"name":"Kayong Utara","key_name":"kalimantan-barat.kabupaten-kayong-utara","postal_code":"78852","type":1},{"id":166,"city_id":195,"branch_id":0,"province_id":12,"name":"Ketapang","key_name":"kalimantan-barat.kabupaten-ketapang","postal_code":"78874","type":1},{"id":167,"city_id":208,"branch_id":0,"province_id":12,"name":"Kubu Raya","key_name":"kalimantan-barat.kabupaten-kubu-raya","postal_code":"78311","type":1},{"id":168,"city_id":228,"branch_id":0,"province_id":12,"name":"Landak","key_name":"kalimantan-barat.kabupaten-landak","postal_code":"78319","type":1},{"id":169,"city_id":279,"branch_id":0,"province_id":12,"name":"Melawi","key_name":"kalimantan-barat.kabupaten-melawi","postal_code":"78619","type":1},{"id":170,"city_id":364,"branch_id":0,"province_id":12,"name":"Pontianak","key_name":"kalimantan-barat.kabupaten-pontianak","postal_code":"78971","type":1},{"id":171,"city_id":365,"branch_id":0,"province_id":12,"name":"Pontianak","key_name":"kalimantan-barat.kota-pontianak","postal_code":"78112","type":0},{"id":172,"city_id":388,"branch_id":0,"province_id":12,"name":"Sambas","key_name":"kalimantan-barat.kabupaten-sambas","postal_code":"79453","type":1},{"id":173,"city_id":391,"branch_id":0,"province_id":12,"name":"Sanggau","key_name":"kalimantan-barat.kabupaten-sanggau","postal_code":"78557","type":1},{"id":174,"city_id":395,"branch_id":0,"province_id":12,"name":"Sekadau","key_name":"kalimantan-barat.kabupaten-sekadau","postal_code":"79583","type":1},{"id":175,"city_id":415,"branch_id":0,"province_id":12,"name":"Singkawang","key_name":"kalimantan-barat.kota-singkawang","postal_code":"79117","type":0},{"id":176,"city_id":417,"branch_id":0,"province_id":12,"name":"Sintang","key_name":"kalimantan-barat.kabupaten-sintang","postal_code":"78619","type":1}]},{"id":13,"province_id":13,"name":"Kalimantan Selatan","key_name":"kalimantan-selatan","cities":[{"id":177,"city_id":18,"branch_id":0,"province_id":13,"name":"Balangan","key_name":"kalimantan-selatan.kabupaten-balangan","postal_code":"71611","type":1},{"id":178,"city_id":33,"branch_id":0,"province_id":13,"name":"Banjar","key_name":"kalimantan-selatan.kabupaten-banjar","postal_code":"70619","type":1},{"id":179,"city_id":35,"branch_id":0,"province_id":13,"name":"Banjarbaru","key_name":"kalimantan-selatan.kota-banjarbaru","postal_code":"70712","type":0},{"id":180,"city_id":36,"branch_id":0,"province_id":13,"name":"Banjarmasin","key_name":"kalimantan-selatan.kota-banjarmasin","postal_code":"70117","type":0},{"id":181,"city_id":43,"branch_id":0,"province_id":13,"name":"Barito Kuala","key_name":"kalimantan-selatan.kabupaten-barito-kuala","postal_code":"70511","type":1},{"id":182,"city_id":143,"branch_id":0,"province_id":13,"name":"Hulu Sungai Selatan","key_name":"kalimantan-selatan.kabupaten-hulu-sungai-selatan","postal_code":"71212","type":1},{"id":183,"city_id":144,"branch_id":0,"province_id":13,"name":"Hulu Sungai Tengah","key_name":"kalimantan-selatan.kabupaten-hulu-sungai-tengah","postal_code":"71313","type":1},{"id":184,"city_id":145,"branch_id":0,"province_id":13,"name":"Hulu Sungai Utara","key_name":"kalimantan-selatan.kabupaten-hulu-sungai-utara","postal_code":"71419","type":1},{"id":185,"city_id":203,"branch_id":0,"province_id":13,"name":"Kotabaru","key_name":"kalimantan-selatan.kabupaten-kotabaru","postal_code":"72119","type":1},{"id":186,"city_id":446,"branch_id":0,"province_id":13,"name":"Tabalong","key_name":"kalimantan-selatan.kabupaten-tabalong","postal_code":"71513","type":1},{"id":187,"city_id":452,"branch_id":0,"province_id":13,"name":"Tanah Bumbu","key_name":"kalimantan-selatan.kabupaten-tanah-bumbu","postal_code":"72211","type":1},{"id":188,"city_id":454,"branch_id":0,"province_id":13,"name":"Tanah Laut","key_name":"kalimantan-selatan.kabupaten-tanah-laut","postal_code":"70811","type":1},{"id":189,"city_id":466,"branch_id":0,"province_id":13,"name":"Tapin","key_name":"kalimantan-selatan.kabupaten-tapin","postal_code":"71119","type":1}]},{"id":14,"province_id":14,"name":"Kalimantan Tengah","key_name":"kalimantan-tengah","cities":[{"id":190,"city_id":44,"branch_id":0,"province_id":14,"name":"Barito Selatan","key_name":"kalimantan-tengah.kabupaten-barito-selatan","postal_code":"73711","type":1},{"id":191,"city_id":45,"branch_id":0,"province_id":14,"name":"Barito Timur","key_name":"kalimantan-tengah.kabupaten-barito-timur","postal_code":"73671","type":1},{"id":192,"city_id":46,"branch_id":0,"province_id":14,"name":"Barito Utara","key_name":"kalimantan-tengah.kabupaten-barito-utara","postal_code":"73881","type":1},{"id":193,"city_id":136,"branch_id":0,"province_id":14,"name":"Gunung Mas","key_name":"kalimantan-tengah.kabupaten-gunung-mas","postal_code":"74511","type":1},{"id":194,"city_id":167,"branch_id":0,"province_id":14,"name":"Kapuas","key_name":"kalimantan-tengah.kabupaten-kapuas","postal_code":"73583","type":1},{"id":195,"city_id":174,"branch_id":0,"province_id":14,"name":"Katingan","key_name":"kalimantan-tengah.kabupaten-katingan","postal_code":"74411","type":1},{"id":196,"city_id":205,"branch_id":0,"province_id":14,"name":"Kotawaringin Barat","key_name":"kalimantan-tengah.kabupaten-kotawaringin-barat","postal_code":"74119","type":1},{"id":197,"city_id":206,"branch_id":0,"province_id":14,"name":"Kotawaringin Timur","key_name":"kalimantan-tengah.kabupaten-kotawaringin-timur","postal_code":"74364","type":1},{"id":198,"city_id":221,"branch_id":0,"province_id":14,"name":"Lamandau","key_name":"kalimantan-tengah.kabupaten-lamandau","postal_code":"74611","type":1},{"id":199,"city_id":296,"branch_id":0,"province_id":14,"name":"Murung Raya","key_name":"kalimantan-tengah.kabupaten-murung-raya","postal_code":"73911","type":1},{"id":200,"city_id":326,"branch_id":0,"province_id":14,"name":"Palangka Raya","key_name":"kalimantan-tengah.kota-palangka-raya","postal_code":"73112","type":0},{"id":201,"city_id":371,"branch_id":0,"province_id":14,"name":"Pulang Pisau","key_name":"kalimantan-tengah.kabupaten-pulang-pisau","postal_code":"74811","type":1},{"id":202,"city_id":405,"branch_id":0,"province_id":14,"name":"Seruyan","key_name":"kalimantan-tengah.kabupaten-seruyan","postal_code":"74211","type":1},{"id":203,"city_id":432,"branch_id":0,"province_id":14,"name":"Sukamara","key_name":"kalimantan-tengah.kabupaten-sukamara","postal_code":"74712","type":1}]},{"id":15,"province_id":15,"name":"Kalimantan Timur","key_name":"kalimantan-timur","cities":[{"id":204,"city_id":19,"branch_id":0,"province_id":15,"name":"Balikpapan","key_name":"kalimantan-timur.kota-balikpapan","postal_code":"76111","type":0},{"id":205,"city_id":66,"branch_id":0,"province_id":15,"name":"Berau","key_name":"kalimantan-timur.kabupaten-berau","postal_code":"77311","type":1},{"id":206,"city_id":89,"branch_id":0,"province_id":15,"name":"Bontang","key_name":"kalimantan-timur.kota-bontang","postal_code":"75313","type":0},{"id":207,"city_id":214,"branch_id":0,"province_id":15,"name":"Kutai Barat","key_name":"kalimantan-timur.kabupaten-kutai-barat","postal_code":"75711","type":1},{"id":208,"city_id":215,"branch_id":0,"province_id":15,"name":"Kutai Kartanegara","key_name":"kalimantan-timur.kabupaten-kutai-kartanegara","postal_code":"75511","type":1},{"id":209,"city_id":216,"branch_id":0,"province_id":15,"name":"Kutai Timur","key_name":"kalimantan-timur.kabupaten-kutai-timur","postal_code":"75611","type":1},{"id":210,"city_id":341,"branch_id":0,"province_id":15,"name":"Paser","key_name":"kalimantan-timur.kabupaten-paser","postal_code":"76211","type":1},{"id":211,"city_id":354,"branch_id":0,"province_id":15,"name":"Penajam Paser Utara","key_name":"kalimantan-timur.kabupaten-penajam-paser-utara","postal_code":"76311","type":1},{"id":212,"city_id":387,"branch_id":0,"province_id":15,"name":"Samarinda","key_name":"kalimantan-timur.kota-samarinda","postal_code":"75133","type":0}]},{"id":16,"province_id":16,"name":"Kalimantan Utara","key_name":"kalimantan-utara","cities":[{"id":213,"city_id":96,"branch_id":0,"province_id":16,"name":"Bulungan (Bulongan)","key_name":"kalimantan-utara.kabupaten-bulungan-bulongan","postal_code":"77211","type":1},{"id":214,"city_id":257,"branch_id":0,"province_id":16,"name":"Malinau","key_name":"kalimantan-utara.kabupaten-malinau","postal_code":"77511","type":1},{"id":215,"city_id":311,"branch_id":0,"province_id":16,"name":"Nunukan","key_name":"kalimantan-utara.kabupaten-nunukan","postal_code":"77421","type":1},{"id":216,"city_id":450,"branch_id":0,"province_id":16,"name":"Tana Tidung","key_name":"kalimantan-utara.kabupaten-tana-tidung","postal_code":"77611","type":1},{"id":217,"city_id":467,"branch_id":0,"province_id":16,"name":"Tarakan","key_name":"kalimantan-utara.kota-tarakan","postal_code":"77114","type":0}]},{"id":17,"province_id":17,"name":"Kepulauan Riau","key_name":"kepulauan-riau","cities":[{"id":218,"city_id":48,"branch_id":0,"province_id":17,"name":"Batam","key_name":"kepulauan-riau.kota-batam","postal_code":"29413","type":0},{"id":219,"city_id":71,"branch_id":0,"province_id":17,"name":"Bintan","key_name":"kepulauan-riau.kabupaten-bintan","postal_code":"29135","type":1},{"id":220,"city_id":172,"branch_id":0,"province_id":17,"name":"Karimun","key_name":"kepulauan-riau.kabupaten-karimun","postal_code":"29611","type":1},{"id":221,"city_id":184,"branch_id":0,"province_id":17,"name":"Kepulauan Anambas","key_name":"kepulauan-riau.kabupaten-kepulauan-anambas","postal_code":"29991","type":1},{"id":222,"city_id":237,"branch_id":0,"province_id":17,"name":"Lingga","key_name":"kepulauan-riau.kabupaten-lingga","postal_code":"29811","type":1},{"id":223,"city_id":302,"branch_id":0,"province_id":17,"name":"Natuna","key_name":"kepulauan-riau.kabupaten-natuna","postal_code":"29711","type":1},{"id":224,"city_id":462,"branch_id":0,"province_id":17,"name":"Tanjung Pinang","key_name":"kepulauan-riau.kota-tanjung-pinang","postal_code":"29111","type":0}]},{"id":18,"province_id":18,"name":"Lampung","key_name":"lampung","cities":[{"id":225,"city_id":21,"branch_id":0,"province_id":18,"name":"Bandar Lampung","key_name":"lampung.kota-bandar-lampung","postal_code":"35139","type":0},{"id":226,"city_id":223,"branch_id":0,"province_id":18,"name":"Lampung Barat","key_name":"lampung.kabupaten-lampung-barat","postal_code":"34814","type":1},{"id":227,"city_id":224,"branch_id":0,"province_id":18,"name":"Lampung Selatan","key_name":"lampung.kabupaten-lampung-selatan","postal_code":"35511","type":1},{"id":228,"city_id":225,"branch_id":0,"province_id":18,"name":"Lampung Tengah","key_name":"lampung.kabupaten-lampung-tengah","postal_code":"34212","type":1},{"id":229,"city_id":226,"branch_id":0,"province_id":18,"name":"Lampung Timur","key_name":"lampung.kabupaten-lampung-timur","postal_code":"34319","type":1},{"id":230,"city_id":227,"branch_id":0,"province_id":18,"name":"Lampung Utara","key_name":"lampung.kabupaten-lampung-utara","postal_code":"34516","type":1},{"id":231,"city_id":282,"branch_id":0,"province_id":18,"name":"Mesuji","key_name":"lampung.kabupaten-mesuji","postal_code":"34911","type":1},{"id":232,"city_id":283,"branch_id":0,"province_id":18,"name":"Metro","key_name":"lampung.kota-metro","postal_code":"34111","type":0},{"id":233,"city_id":355,"branch_id":0,"province_id":18,"name":"Pesawaran","key_name":"lampung.kabupaten-pesawaran","postal_code":"35312","type":1},{"id":234,"city_id":356,"branch_id":0,"province_id":18,"name":"Pesisir Barat","key_name":"lampung.kabupaten-pesisir-barat","postal_code":"35974","type":1},{"id":235,"city_id":368,"branch_id":0,"province_id":18,"name":"Pringsewu","key_name":"lampung.kabupaten-pringsewu","postal_code":"35719","type":1},{"id":236,"city_id":458,"branch_id":0,"province_id":18,"name":"Tanggamus","key_name":"lampung.kabupaten-tanggamus","postal_code":"35619","type":1},{"id":237,"city_id":490,"branch_id":0,"province_id":18,"name":"Tulang Bawang","key_name":"lampung.kabupaten-tulang-bawang","postal_code":"34613","type":1},{"id":238,"city_id":491,"branch_id":0,"province_id":18,"name":"Tulang Bawang Barat","key_name":"lampung.kabupaten-tulang-bawang-barat","postal_code":"34419","type":1},{"id":239,"city_id":496,"branch_id":0,"province_id":18,"name":"Way Kanan","key_name":"lampung.kabupaten-way-kanan","postal_code":"34711","type":1}]},{"id":19,"province_id":19,"name":"Maluku","key_name":"maluku","cities":[{"id":240,"city_id":14,"branch_id":0,"province_id":19,"name":"Ambon","key_name":"maluku.kota-ambon","postal_code":"97222","type":0},{"id":241,"city_id":99,"branch_id":0,"province_id":19,"name":"Buru","key_name":"maluku.kabupaten-buru","postal_code":"97371","type":1},{"id":242,"city_id":100,"branch_id":0,"province_id":19,"name":"Buru Selatan","key_name":"maluku.kabupaten-buru-selatan","postal_code":"97351","type":1},{"id":243,"city_id":185,"branch_id":0,"province_id":19,"name":"Kepulauan Aru","key_name":"maluku.kabupaten-kepulauan-aru","postal_code":"97681","type":1},{"id":244,"city_id":258,"branch_id":0,"province_id":19,"name":"Maluku Barat Daya","key_name":"maluku.kabupaten-maluku-barat-daya","postal_code":"97451","type":1},{"id":245,"city_id":259,"branch_id":0,"province_id":19,"name":"Maluku Tengah","key_name":"maluku.kabupaten-maluku-tengah","postal_code":"97513","type":1},{"id":246,"city_id":260,"branch_id":0,"province_id":19,"name":"Maluku Tenggara","key_name":"maluku.kabupaten-maluku-tenggara","postal_code":"97651","type":1},{"id":247,"city_id":261,"branch_id":0,"province_id":19,"name":"Maluku Tenggara Barat","key_name":"maluku.kabupaten-maluku-tenggara-barat","postal_code":"97465","type":1},{"id":248,"city_id":400,"branch_id":0,"province_id":19,"name":"Seram Bagian Barat","key_name":"maluku.kabupaten-seram-bagian-barat","postal_code":"97561","type":1},{"id":249,"city_id":401,"branch_id":0,"province_id":19,"name":"Seram Bagian Timur","key_name":"maluku.kabupaten-seram-bagian-timur","postal_code":"97581","type":1},{"id":250,"city_id":488,"branch_id":0,"province_id":19,"name":"Tual","key_name":"maluku.kota-tual","postal_code":"97612","type":0}]},{"id":20,"province_id":20,"name":"Maluku Utara","key_name":"maluku-utara","cities":[{"id":251,"city_id":138,"branch_id":0,"province_id":20,"name":"Halmahera Barat","key_name":"maluku-utara.kabupaten-halmahera-barat","postal_code":"97757","type":1},{"id":252,"city_id":139,"branch_id":0,"province_id":20,"name":"Halmahera Selatan","key_name":"maluku-utara.kabupaten-halmahera-selatan","postal_code":"97911","type":1},{"id":253,"city_id":140,"branch_id":0,"province_id":20,"name":"Halmahera Tengah","key_name":"maluku-utara.kabupaten-halmahera-tengah","postal_code":"97853","type":1},{"id":254,"city_id":141,"branch_id":0,"province_id":20,"name":"Halmahera Timur","key_name":"maluku-utara.kabupaten-halmahera-timur","postal_code":"97862","type":1},{"id":255,"city_id":142,"branch_id":0,"province_id":20,"name":"Halmahera Utara","key_name":"maluku-utara.kabupaten-halmahera-utara","postal_code":"97762","type":1},{"id":256,"city_id":191,"branch_id":0,"province_id":20,"name":"Kepulauan Sula","key_name":"maluku-utara.kabupaten-kepulauan-sula","postal_code":"97995","type":1},{"id":257,"city_id":372,"branch_id":0,"province_id":20,"name":"Pulau Morotai","key_name":"maluku-utara.kabupaten-pulau-morotai","postal_code":"97771","type":1},{"id":258,"city_id":477,"branch_id":0,"province_id":20,"name":"Ternate","key_name":"maluku-utara.kota-ternate","postal_code":"97714","type":0},{"id":259,"city_id":478,"branch_id":0,"province_id":20,"name":"Tidore Kepulauan","key_name":"maluku-utara.kota-tidore-kepulauan","postal_code":"97815","type":0}]},{"id":21,"province_id":21,"name":"Nanggroe Aceh Darussalam (NAD)","key_name":"nanggroe-aceh-darussalam-nad","cities":[{"id":260,"city_id":1,"branch_id":0,"province_id":21,"name":"Aceh Barat","key_name":"nanggroe-aceh-darussalam-nad.kabupaten-aceh-barat","postal_code":"23681","type":1},{"id":261,"city_id":2,"branch_id":0,"province_id":21,"name":"Aceh Barat Daya","key_name":"nanggroe-aceh-darussalam-nad.kabupaten-aceh-barat-daya","postal_code":"23764","type":1},{"id":262,"city_id":3,"branch_id":0,"province_id":21,"name":"Aceh Besar","key_name":"nanggroe-aceh-darussalam-nad.kabupaten-aceh-besar","postal_code":"23951","type":1},{"id":263,"city_id":4,"branch_id":0,"province_id":21,"name":"Aceh Jaya","key_name":"nanggroe-aceh-darussalam-nad.kabupaten-aceh-jaya","postal_code":"23654","type":1},{"id":264,"city_id":5,"branch_id":0,"province_id":21,"name":"Aceh Selatan","key_name":"nanggroe-aceh-darussalam-nad.kabupaten-aceh-selatan","postal_code":"23719","type":1},{"id":265,"city_id":6,"branch_id":0,"province_id":21,"name":"Aceh Singkil","key_name":"nanggroe-aceh-darussalam-nad.kabupaten-aceh-singkil","postal_code":"24785","type":1},{"id":266,"city_id":7,"branch_id":0,"province_id":21,"name":"Aceh Tamiang","key_name":"nanggroe-aceh-darussalam-nad.kabupaten-aceh-tamiang","postal_code":"24476","type":1},{"id":267,"city_id":8,"branch_id":0,"province_id":21,"name":"Aceh Tengah","key_name":"nanggroe-aceh-darussalam-nad.kabupaten-aceh-tengah","postal_code":"24511","type":1},{"id":268,"city_id":9,"branch_id":0,"province_id":21,"name":"Aceh Tenggara","key_name":"nanggroe-aceh-darussalam-nad.kabupaten-aceh-tenggara","postal_code":"24611","type":1},{"id":269,"city_id":10,"branch_id":0,"province_id":21,"name":"Aceh Timur","key_name":"nanggroe-aceh-darussalam-nad.kabupaten-aceh-timur","postal_code":"24454","type":1},{"id":270,"city_id":11,"branch_id":0,"province_id":21,"name":"Aceh Utara","key_name":"nanggroe-aceh-darussalam-nad.kabupaten-aceh-utara","postal_code":"24382","type":1},{"id":271,"city_id":20,"branch_id":0,"province_id":21,"name":"Banda Aceh","key_name":"nanggroe-aceh-darussalam-nad.kota-banda-aceh","postal_code":"23238","type":0},{"id":272,"city_id":59,"branch_id":0,"province_id":21,"name":"Bener Meriah","key_name":"nanggroe-aceh-darussalam-nad.kabupaten-bener-meriah","postal_code":"24581","type":1},{"id":273,"city_id":72,"branch_id":0,"province_id":21,"name":"Bireuen","key_name":"nanggroe-aceh-darussalam-nad.kabupaten-bireuen","postal_code":"24219","type":1},{"id":274,"city_id":127,"branch_id":0,"province_id":21,"name":"Gayo Lues","key_name":"nanggroe-aceh-darussalam-nad.kabupaten-gayo-lues","postal_code":"24653","type":1},{"id":275,"city_id":230,"branch_id":0,"province_id":21,"name":"Langsa","key_name":"nanggroe-aceh-darussalam-nad.kota-langsa","postal_code":"24412","type":0},{"id":276,"city_id":235,"branch_id":0,"province_id":21,"name":"Lhokseumawe","key_name":"nanggroe-aceh-darussalam-nad.kota-lhokseumawe","postal_code":"24352","type":0},{"id":277,"city_id":300,"branch_id":0,"province_id":21,"name":"Nagan Raya","key_name":"nanggroe-aceh-darussalam-nad.kabupaten-nagan-raya","postal_code":"23674","type":1},{"id":278,"city_id":358,"branch_id":0,"province_id":21,"name":"Pidie","key_name":"nanggroe-aceh-darussalam-nad.kabupaten-pidie","postal_code":"24116","type":1},{"id":279,"city_id":359,"branch_id":0,"province_id":21,"name":"Pidie Jaya","key_name":"nanggroe-aceh-darussalam-nad.kabupaten-pidie-jaya","postal_code":"24186","type":1},{"id":280,"city_id":384,"branch_id":0,"province_id":21,"name":"Sabang","key_name":"nanggroe-aceh-darussalam-nad.kota-sabang","postal_code":"23512","type":0},{"id":281,"city_id":414,"branch_id":0,"province_id":21,"name":"Simeulue","key_name":"nanggroe-aceh-darussalam-nad.kabupaten-simeulue","postal_code":"23891","type":1},{"id":282,"city_id":429,"branch_id":0,"province_id":21,"name":"Subulussalam","key_name":"nanggroe-aceh-darussalam-nad.kota-subulussalam","postal_code":"24882","type":0}]},{"id":22,"province_id":22,"name":"Nusa Tenggara Barat (NTB)","key_name":"nusa-tenggara-barat-ntb","cities":[{"id":283,"city_id":68,"branch_id":0,"province_id":22,"name":"Bima","key_name":"nusa-tenggara-barat-ntb.kabupaten-bima","postal_code":"84171","type":1},{"id":284,"city_id":69,"branch_id":0,"province_id":22,"name":"Bima","key_name":"nusa-tenggara-barat-ntb.kota-bima","postal_code":"84139","type":0},{"id":285,"city_id":118,"branch_id":0,"province_id":22,"name":"Dompu","key_name":"nusa-tenggara-barat-ntb.kabupaten-dompu","postal_code":"84217","type":1},{"id":286,"city_id":238,"branch_id":0,"province_id":22,"name":"Lombok Barat","key_name":"nusa-tenggara-barat-ntb.kabupaten-lombok-barat","postal_code":"83311","type":1},{"id":287,"city_id":239,"branch_id":0,"province_id":22,"name":"Lombok Tengah","key_name":"nusa-tenggara-barat-ntb.kabupaten-lombok-tengah","postal_code":"83511","type":1},{"id":288,"city_id":240,"branch_id":0,"province_id":22,"name":"Lombok Timur","key_name":"nusa-tenggara-barat-ntb.kabupaten-lombok-timur","postal_code":"83612","type":1},{"id":289,"city_id":241,"branch_id":0,"province_id":22,"name":"Lombok Utara","key_name":"nusa-tenggara-barat-ntb.kabupaten-lombok-utara","postal_code":"83711","type":1},{"id":290,"city_id":276,"branch_id":0,"province_id":22,"name":"Mataram","key_name":"nusa-tenggara-barat-ntb.kota-mataram","postal_code":"83131","type":0},{"id":291,"city_id":438,"branch_id":0,"province_id":22,"name":"Sumbawa","key_name":"nusa-tenggara-barat-ntb.kabupaten-sumbawa","postal_code":"84315","type":1},{"id":292,"city_id":439,"branch_id":0,"province_id":22,"name":"Sumbawa Barat","key_name":"nusa-tenggara-barat-ntb.kabupaten-sumbawa-barat","postal_code":"84419","type":1}]},{"id":23,"province_id":23,"name":"Nusa Tenggara Timur (NTT)","key_name":"nusa-tenggara-timur-ntt","cities":[{"id":293,"city_id":13,"branch_id":0,"province_id":23,"name":"Alor","key_name":"nusa-tenggara-timur-ntt.kabupaten-alor","postal_code":"85811","type":1},{"id":294,"city_id":58,"branch_id":0,"province_id":23,"name":"Belu","key_name":"nusa-tenggara-timur-ntt.kabupaten-belu","postal_code":"85711","type":1},{"id":295,"city_id":122,"branch_id":0,"province_id":23,"name":"Ende","key_name":"nusa-tenggara-timur-ntt.kabupaten-ende","postal_code":"86351","type":1},{"id":296,"city_id":125,"branch_id":0,"province_id":23,"name":"Flores Timur","key_name":"nusa-tenggara-timur-ntt.kabupaten-flores-timur","postal_code":"86213","type":1},{"id":297,"city_id":212,"branch_id":0,"province_id":23,"name":"Kupang","key_name":"nusa-tenggara-timur-ntt.kabupaten-kupang","postal_code":"85362","type":1},{"id":298,"city_id":213,"branch_id":0,"province_id":23,"name":"Kupang","key_name":"nusa-tenggara-timur-ntt.kota-kupang","postal_code":"85119","type":0},{"id":299,"city_id":234,"branch_id":0,"province_id":23,"name":"Lembata","key_name":"nusa-tenggara-timur-ntt.kabupaten-lembata","postal_code":"86611","type":1},{"id":300,"city_id":269,"branch_id":0,"province_id":23,"name":"Manggarai","key_name":"nusa-tenggara-timur-ntt.kabupaten-manggarai","postal_code":"86551","type":1},{"id":301,"city_id":270,"branch_id":0,"province_id":23,"name":"Manggarai Barat","key_name":"nusa-tenggara-timur-ntt.kabupaten-manggarai-barat","postal_code":"86711","type":1},{"id":302,"city_id":271,"branch_id":0,"province_id":23,"name":"Manggarai Timur","key_name":"nusa-tenggara-timur-ntt.kabupaten-manggarai-timur","postal_code":"86811","type":1},{"id":303,"city_id":301,"branch_id":0,"province_id":23,"name":"Nagekeo","key_name":"nusa-tenggara-timur-ntt.kabupaten-nagekeo","postal_code":"86911","type":1},{"id":304,"city_id":304,"branch_id":0,"province_id":23,"name":"Ngada","key_name":"nusa-tenggara-timur-ntt.kabupaten-ngada","postal_code":"86413","type":1},{"id":305,"city_id":383,"branch_id":0,"province_id":23,"name":"Rote Ndao","key_name":"nusa-tenggara-timur-ntt.kabupaten-rote-ndao","postal_code":"85982","type":1},{"id":306,"city_id":385,"branch_id":0,"province_id":23,"name":"Sabu Raijua","key_name":"nusa-tenggara-timur-ntt.kabupaten-sabu-raijua","postal_code":"85391","type":1},{"id":307,"city_id":412,"branch_id":0,"province_id":23,"name":"Sikka","key_name":"nusa-tenggara-timur-ntt.kabupaten-sikka","postal_code":"86121","type":1},{"id":308,"city_id":434,"branch_id":0,"province_id":23,"name":"Sumba Barat","key_name":"nusa-tenggara-timur-ntt.kabupaten-sumba-barat","postal_code":"87219","type":1},{"id":309,"city_id":435,"branch_id":0,"province_id":23,"name":"Sumba Barat Daya","key_name":"nusa-tenggara-timur-ntt.kabupaten-sumba-barat-daya","postal_code":"87453","type":1},{"id":310,"city_id":436,"branch_id":0,"province_id":23,"name":"Sumba Tengah","key_name":"nusa-tenggara-timur-ntt.kabupaten-sumba-tengah","postal_code":"87358","type":1},{"id":311,"city_id":437,"branch_id":0,"province_id":23,"name":"Sumba Timur","key_name":"nusa-tenggara-timur-ntt.kabupaten-sumba-timur","postal_code":"87112","type":1},{"id":312,"city_id":479,"branch_id":0,"province_id":23,"name":"Timor Tengah Selatan","key_name":"nusa-tenggara-timur-ntt.kabupaten-timor-tengah-selatan","postal_code":"85562","type":1},{"id":313,"city_id":480,"branch_id":0,"province_id":23,"name":"Timor Tengah Utara","key_name":"nusa-tenggara-timur-ntt.kabupaten-timor-tengah-utara","postal_code":"85612","type":1}]},{"id":24,"province_id":24,"name":"Papua","key_name":"papua","cities":[{"id":314,"city_id":16,"branch_id":0,"province_id":24,"name":"Asmat","key_name":"papua.kabupaten-asmat","postal_code":"99777","type":1},{"id":315,"city_id":67,"branch_id":0,"province_id":24,"name":"Biak Numfor","key_name":"papua.kabupaten-biak-numfor","postal_code":"98119","type":1},{"id":316,"city_id":90,"branch_id":0,"province_id":24,"name":"Boven Digoel","key_name":"papua.kabupaten-boven-digoel","postal_code":"99662","type":1},{"id":317,"city_id":111,"branch_id":0,"province_id":24,"name":"Deiyai (Deliyai)","key_name":"papua.kabupaten-deiyai-deliyai","postal_code":"98784","type":1},{"id":318,"city_id":117,"branch_id":0,"province_id":24,"name":"Dogiyai","key_name":"papua.kabupaten-dogiyai","postal_code":"98866","type":1},{"id":319,"city_id":150,"branch_id":0,"province_id":24,"name":"Intan Jaya","key_name":"papua.kabupaten-intan-jaya","postal_code":"98771","type":1},{"id":320,"city_id":157,"branch_id":0,"province_id":24,"name":"Jayapura","key_name":"papua.kabupaten-jayapura","postal_code":"99352","type":1},{"id":321,"city_id":158,"branch_id":0,"province_id":24,"name":"Jayapura","key_name":"papua.kota-jayapura","postal_code":"99114","type":0},{"id":322,"city_id":159,"branch_id":0,"province_id":24,"name":"Jayawijaya","key_name":"papua.kabupaten-jayawijaya","postal_code":"99511","type":1},{"id":323,"city_id":180,"branch_id":0,"province_id":24,"name":"Keerom","key_name":"papua.kabupaten-keerom","postal_code":"99461","type":1},{"id":324,"city_id":193,"branch_id":0,"province_id":24,"name":"Kepulauan Yapen (Yapen Waropen)","key_name":"papua.kabupaten-kepulauan-yapen-yapen-waropen","postal_code":"98211","type":1},{"id":325,"city_id":231,"branch_id":0,"province_id":24,"name":"Lanny Jaya","key_name":"papua.kabupaten-lanny-jaya","postal_code":"99531","type":1},{"id":326,"city_id":263,"branch_id":0,"province_id":24,"name":"Mamberamo Raya","key_name":"papua.kabupaten-mamberamo-raya","postal_code":"99381","type":1},{"id":327,"city_id":264,"branch_id":0,"province_id":24,"name":"Mamberamo Tengah","key_name":"papua.kabupaten-mamberamo-tengah","postal_code":"99553","type":1},{"id":328,"city_id":274,"branch_id":0,"province_id":24,"name":"Mappi","key_name":"papua.kabupaten-mappi","postal_code":"99853","type":1},{"id":329,"city_id":281,"branch_id":0,"province_id":24,"name":"Merauke","key_name":"papua.kabupaten-merauke","postal_code":"99613","type":1},{"id":330,"city_id":284,"branch_id":0,"province_id":24,"name":"Mimika","key_name":"papua.kabupaten-mimika","postal_code":"99962","type":1},{"id":331,"city_id":299,"branch_id":0,"province_id":24,"name":"Nabire","key_name":"papua.kabupaten-nabire","postal_code":"98816","type":1},{"id":332,"city_id":303,"branch_id":0,"province_id":24,"name":"Nduga","key_name":"papua.kabupaten-nduga","postal_code":"99541","type":1},{"id":333,"city_id":335,"branch_id":0,"province_id":24,"name":"Paniai","key_name":"papua.kabupaten-paniai","postal_code":"98765","type":1},{"id":334,"city_id":347,"branch_id":0,"province_id":24,"name":"Pegunungan Bintang","key_name":"papua.kabupaten-pegunungan-bintang","postal_code":"99573","type":1},{"id":335,"city_id":373,"branch_id":0,"province_id":24,"name":"Puncak","key_name":"papua.kabupaten-puncak","postal_code":"98981","type":1},{"id":336,"city_id":374,"branch_id":0,"province_id":24,"name":"Puncak Jaya","key_name":"papua.kabupaten-puncak-jaya","postal_code":"98979","type":1},{"id":337,"city_id":392,"branch_id":0,"province_id":24,"name":"Sarmi","key_name":"papua.kabupaten-sarmi","postal_code":"99373","type":1},{"id":338,"city_id":443,"branch_id":0,"province_id":24,"name":"Supiori","key_name":"papua.kabupaten-supiori","postal_code":"98164","type":1},{"id":339,"city_id":484,"branch_id":0,"province_id":24,"name":"Tolikara","key_name":"papua.kabupaten-tolikara","postal_code":"99411","type":1},{"id":340,"city_id":495,"branch_id":0,"province_id":24,"name":"Waropen","key_name":"papua.kabupaten-waropen","postal_code":"98269","type":1},{"id":341,"city_id":499,"branch_id":0,"province_id":24,"name":"Yahukimo","key_name":"papua.kabupaten-yahukimo","postal_code":"99041","type":1},{"id":342,"city_id":500,"branch_id":0,"province_id":24,"name":"Yalimo","key_name":"papua.kabupaten-yalimo","postal_code":"99481","type":1}]},{"id":25,"province_id":25,"name":"Papua Barat","key_name":"papua-barat","cities":[{"id":343,"city_id":124,"branch_id":0,"province_id":25,"name":"Fakfak","key_name":"papua-barat.kabupaten-fakfak","postal_code":"98651","type":1},{"id":344,"city_id":165,"branch_id":0,"province_id":25,"name":"Kaimana","key_name":"papua-barat.kabupaten-kaimana","postal_code":"98671","type":1},{"id":345,"city_id":272,"branch_id":0,"province_id":25,"name":"Manokwari","key_name":"papua-barat.kabupaten-manokwari","postal_code":"98311","type":1},{"id":346,"city_id":273,"branch_id":0,"province_id":25,"name":"Manokwari Selatan","key_name":"papua-barat.kabupaten-manokwari-selatan","postal_code":"98355","type":1},{"id":347,"city_id":277,"branch_id":0,"province_id":25,"name":"Maybrat","key_name":"papua-barat.kabupaten-maybrat","postal_code":"98051","type":1},{"id":348,"city_id":346,"branch_id":0,"province_id":25,"name":"Pegunungan Arfak","key_name":"papua-barat.kabupaten-pegunungan-arfak","postal_code":"98354","type":1},{"id":349,"city_id":378,"branch_id":0,"province_id":25,"name":"Raja Ampat","key_name":"papua-barat.kabupaten-raja-ampat","postal_code":"98489","type":1},{"id":350,"city_id":424,"branch_id":0,"province_id":25,"name":"Sorong","key_name":"papua-barat.kabupaten-sorong","postal_code":"98431","type":1},{"id":351,"city_id":425,"branch_id":0,"province_id":25,"name":"Sorong","key_name":"papua-barat.kota-sorong","postal_code":"98411","type":0},{"id":352,"city_id":426,"branch_id":0,"province_id":25,"name":"Sorong Selatan","key_name":"papua-barat.kabupaten-sorong-selatan","postal_code":"98454","type":1},{"id":353,"city_id":449,"branch_id":0,"province_id":25,"name":"Tambrauw","key_name":"papua-barat.kabupaten-tambrauw","postal_code":"98475","type":1},{"id":354,"city_id":474,"branch_id":0,"province_id":25,"name":"Teluk Bintuni","key_name":"papua-barat.kabupaten-teluk-bintuni","postal_code":"98551","type":1},{"id":355,"city_id":475,"branch_id":0,"province_id":25,"name":"Teluk Wondama","key_name":"papua-barat.kabupaten-teluk-wondama","postal_code":"98591","type":1}]},{"id":26,"province_id":26,"name":"Riau","key_name":"riau","cities":[{"id":356,"city_id":60,"branch_id":0,"province_id":26,"name":"Bengkalis","key_name":"riau.kabupaten-bengkalis","postal_code":"28719","type":1},{"id":357,"city_id":120,"branch_id":0,"province_id":26,"name":"Dumai","key_name":"riau.kota-dumai","postal_code":"28811","type":0},{"id":358,"city_id":147,"branch_id":0,"province_id":26,"name":"Indragiri Hilir","key_name":"riau.kabupaten-indragiri-hilir","postal_code":"29212","type":1},{"id":359,"city_id":148,"branch_id":0,"province_id":26,"name":"Indragiri Hulu","key_name":"riau.kabupaten-indragiri-hulu","postal_code":"29319","type":1},{"id":360,"city_id":166,"branch_id":0,"province_id":26,"name":"Kampar","key_name":"riau.kabupaten-kampar","postal_code":"28411","type":1},{"id":361,"city_id":187,"branch_id":0,"province_id":26,"name":"Kepulauan Meranti","key_name":"riau.kabupaten-kepulauan-meranti","postal_code":"28791","type":1},{"id":362,"city_id":207,"branch_id":0,"province_id":26,"name":"Kuantan Singingi","key_name":"riau.kabupaten-kuantan-singingi","postal_code":"29519","type":1},{"id":363,"city_id":350,"branch_id":0,"province_id":26,"name":"Pekanbaru","key_name":"riau.kota-pekanbaru","postal_code":"28112","type":0},{"id":364,"city_id":351,"branch_id":0,"province_id":26,"name":"Pelalawan","key_name":"riau.kabupaten-pelalawan","postal_code":"28311","type":1},{"id":365,"city_id":381,"branch_id":0,"province_id":26,"name":"Rokan Hilir","key_name":"riau.kabupaten-rokan-hilir","postal_code":"28992","type":1},{"id":366,"city_id":382,"branch_id":0,"province_id":26,"name":"Rokan Hulu","key_name":"riau.kabupaten-rokan-hulu","postal_code":"28511","type":1},{"id":367,"city_id":406,"branch_id":0,"province_id":26,"name":"Siak","key_name":"riau.kabupaten-siak","postal_code":"28623","type":1}]},{"id":27,"province_id":27,"name":"Sulawesi Barat","key_name":"sulawesi-barat","cities":[{"id":368,"city_id":253,"branch_id":0,"province_id":27,"name":"Majene","key_name":"sulawesi-barat.kabupaten-majene","postal_code":"91411","type":1},{"id":369,"city_id":262,"branch_id":0,"province_id":27,"name":"Mamasa","key_name":"sulawesi-barat.kabupaten-mamasa","postal_code":"91362","type":1},{"id":370,"city_id":265,"branch_id":0,"province_id":27,"name":"Mamuju","key_name":"sulawesi-barat.kabupaten-mamuju","postal_code":"91519","type":1},{"id":371,"city_id":266,"branch_id":0,"province_id":27,"name":"Mamuju Utara","key_name":"sulawesi-barat.kabupaten-mamuju-utara","postal_code":"91571","type":1},{"id":372,"city_id":362,"branch_id":0,"province_id":27,"name":"Polewali Mandar","key_name":"sulawesi-barat.kabupaten-polewali-mandar","postal_code":"91311","type":1}]},{"id":28,"province_id":28,"name":"Sulawesi Selatan","key_name":"sulawesi-selatan","cities":[{"id":373,"city_id":38,"branch_id":0,"province_id":28,"name":"Bantaeng","key_name":"sulawesi-selatan.kabupaten-bantaeng","postal_code":"92411","type":1},{"id":374,"city_id":47,"branch_id":0,"province_id":28,"name":"Barru","key_name":"sulawesi-selatan.kabupaten-barru","postal_code":"90719","type":1},{"id":375,"city_id":87,"branch_id":0,"province_id":28,"name":"Bone","key_name":"sulawesi-selatan.kabupaten-bone","postal_code":"92713","type":1},{"id":376,"city_id":95,"branch_id":0,"province_id":28,"name":"Bulukumba","key_name":"sulawesi-selatan.kabupaten-bulukumba","postal_code":"92511","type":1},{"id":377,"city_id":123,"branch_id":0,"province_id":28,"name":"Enrekang","key_name":"sulawesi-selatan.kabupaten-enrekang","postal_code":"91719","type":1},{"id":378,"city_id":132,"branch_id":0,"province_id":28,"name":"Gowa","key_name":"sulawesi-selatan.kabupaten-gowa","postal_code":"92111","type":1},{"id":379,"city_id":162,"branch_id":0,"province_id":28,"name":"Jeneponto","key_name":"sulawesi-selatan.kabupaten-jeneponto","postal_code":"92319","type":1},{"id":380,"city_id":244,"branch_id":0,"province_id":28,"name":"Luwu","key_name":"sulawesi-selatan.kabupaten-luwu","postal_code":"91994","type":1},{"id":381,"city_id":245,"branch_id":0,"province_id":28,"name":"Luwu Timur","key_name":"sulawesi-selatan.kabupaten-luwu-timur","postal_code":"92981","type":1},{"id":382,"city_id":246,"branch_id":0,"province_id":28,"name":"Luwu Utara","key_name":"sulawesi-selatan.kabupaten-luwu-utara","postal_code":"92911","type":1},{"id":383,"city_id":254,"branch_id":0,"province_id":28,"name":"Makassar","key_name":"sulawesi-selatan.kota-makassar","postal_code":"90111","type":0},{"id":384,"city_id":275,"branch_id":0,"province_id":28,"name":"Maros","key_name":"sulawesi-selatan.kabupaten-maros","postal_code":"90511","type":1},{"id":385,"city_id":328,"branch_id":0,"province_id":28,"name":"Palopo","key_name":"sulawesi-selatan.kota-palopo","postal_code":"91911","type":0},{"id":386,"city_id":333,"branch_id":0,"province_id":28,"name":"Pangkajene Kepulauan","key_name":"sulawesi-selatan.kabupaten-pangkajene-kepulauan","postal_code":"90611","type":1},{"id":387,"city_id":336,"branch_id":0,"province_id":28,"name":"Parepare","key_name":"sulawesi-selatan.kota-parepare","postal_code":"91123","type":0},{"id":388,"city_id":360,"branch_id":0,"province_id":28,"name":"Pinrang","key_name":"sulawesi-selatan.kabupaten-pinrang","postal_code":"91251","type":1},{"id":389,"city_id":396,"branch_id":0,"province_id":28,"name":"Selayar (Kepulauan Selayar)","key_name":"sulawesi-selatan.kabupaten-selayar-kepulauan-selayar","postal_code":"92812","type":1},{"id":390,"city_id":408,"branch_id":0,"province_id":28,"name":"Sidenreng Rappang\/Rapang","key_name":"sulawesi-selatan.kabupaten-sidenreng-rappangrapang","postal_code":"91613","type":1},{"id":391,"city_id":416,"branch_id":0,"province_id":28,"name":"Sinjai","key_name":"sulawesi-selatan.kabupaten-sinjai","postal_code":"92615","type":1},{"id":392,"city_id":423,"branch_id":0,"province_id":28,"name":"Soppeng","key_name":"sulawesi-selatan.kabupaten-soppeng","postal_code":"90812","type":1},{"id":393,"city_id":448,"branch_id":0,"province_id":28,"name":"Takalar","key_name":"sulawesi-selatan.kabupaten-takalar","postal_code":"92212","type":1},{"id":394,"city_id":451,"branch_id":0,"province_id":28,"name":"Tana Toraja","key_name":"sulawesi-selatan.kabupaten-tana-toraja","postal_code":"91819","type":1},{"id":395,"city_id":486,"branch_id":0,"province_id":28,"name":"Toraja Utara","key_name":"sulawesi-selatan.kabupaten-toraja-utara","postal_code":"91831","type":1},{"id":396,"city_id":493,"branch_id":0,"province_id":28,"name":"Wajo","key_name":"sulawesi-selatan.kabupaten-wajo","postal_code":"90911","type":1}]},{"id":29,"province_id":29,"name":"Sulawesi Tengah","key_name":"sulawesi-tengah","cities":[{"id":397,"city_id":25,"branch_id":0,"province_id":29,"name":"Banggai","key_name":"sulawesi-tengah.kabupaten-banggai","postal_code":"94711","type":1},{"id":398,"city_id":26,"branch_id":0,"province_id":29,"name":"Banggai Kepulauan","key_name":"sulawesi-tengah.kabupaten-banggai-kepulauan","postal_code":"94881","type":1},{"id":399,"city_id":98,"branch_id":0,"province_id":29,"name":"Buol","key_name":"sulawesi-tengah.kabupaten-buol","postal_code":"94564","type":1},{"id":400,"city_id":119,"branch_id":0,"province_id":29,"name":"Donggala","key_name":"sulawesi-tengah.kabupaten-donggala","postal_code":"94341","type":1},{"id":401,"city_id":291,"branch_id":0,"province_id":29,"name":"Morowali","key_name":"sulawesi-tengah.kabupaten-morowali","postal_code":"94911","type":1},{"id":402,"city_id":329,"branch_id":0,"province_id":29,"name":"Palu","key_name":"sulawesi-tengah.kota-palu","postal_code":"94111","type":0},{"id":403,"city_id":338,"branch_id":0,"province_id":29,"name":"Parigi Moutong","key_name":"sulawesi-tengah.kabupaten-parigi-moutong","postal_code":"94411","type":1},{"id":404,"city_id":366,"branch_id":0,"province_id":29,"name":"Poso","key_name":"sulawesi-tengah.kabupaten-poso","postal_code":"94615","type":1},{"id":405,"city_id":410,"branch_id":0,"province_id":29,"name":"Sigi","key_name":"sulawesi-tengah.kabupaten-sigi","postal_code":"94364","type":1},{"id":406,"city_id":482,"branch_id":0,"province_id":29,"name":"Tojo Una-Una","key_name":"sulawesi-tengah.kabupaten-tojo-una-una","postal_code":"94683","type":1},{"id":407,"city_id":483,"branch_id":0,"province_id":29,"name":"Toli-Toli","key_name":"sulawesi-tengah.kabupaten-toli-toli","postal_code":"94542","type":1}]},{"id":30,"province_id":30,"name":"Sulawesi Tenggara","key_name":"sulawesi-tenggara","cities":[{"id":408,"city_id":53,"branch_id":0,"province_id":30,"name":"Bau-Bau","key_name":"sulawesi-tenggara.kota-bau-bau","postal_code":"93719","type":0},{"id":409,"city_id":85,"branch_id":0,"province_id":30,"name":"Bombana","key_name":"sulawesi-tenggara.kabupaten-bombana","postal_code":"93771","type":1},{"id":410,"city_id":101,"branch_id":0,"province_id":30,"name":"Buton","key_name":"sulawesi-tenggara.kabupaten-buton","postal_code":"93754","type":1},{"id":411,"city_id":102,"branch_id":0,"province_id":30,"name":"Buton Utara","key_name":"sulawesi-tenggara.kabupaten-buton-utara","postal_code":"93745","type":1},{"id":412,"city_id":182,"branch_id":0,"province_id":30,"name":"Kendari","key_name":"sulawesi-tenggara.kota-kendari","postal_code":"93126","type":0},{"id":413,"city_id":198,"branch_id":0,"province_id":30,"name":"Kolaka","key_name":"sulawesi-tenggara.kabupaten-kolaka","postal_code":"93511","type":1},{"id":414,"city_id":199,"branch_id":0,"province_id":30,"name":"Kolaka Utara","key_name":"sulawesi-tenggara.kabupaten-kolaka-utara","postal_code":"93911","type":1},{"id":415,"city_id":200,"branch_id":0,"province_id":30,"name":"Konawe","key_name":"sulawesi-tenggara.kabupaten-konawe","postal_code":"93411","type":1},{"id":416,"city_id":201,"branch_id":0,"province_id":30,"name":"Konawe Selatan","key_name":"sulawesi-tenggara.kabupaten-konawe-selatan","postal_code":"93811","type":1},{"id":417,"city_id":202,"branch_id":0,"province_id":30,"name":"Konawe Utara","key_name":"sulawesi-tenggara.kabupaten-konawe-utara","postal_code":"93311","type":1},{"id":418,"city_id":295,"branch_id":0,"province_id":30,"name":"Muna","key_name":"sulawesi-tenggara.kabupaten-muna","postal_code":"93611","type":1},{"id":419,"city_id":494,"branch_id":0,"province_id":30,"name":"Wakatobi","key_name":"sulawesi-tenggara.kabupaten-wakatobi","postal_code":"93791","type":1}]},{"id":31,"province_id":31,"name":"Sulawesi Utara","key_name":"sulawesi-utara","cities":[{"id":420,"city_id":73,"branch_id":0,"province_id":31,"name":"Bitung","key_name":"sulawesi-utara.kota-bitung","postal_code":"95512","type":0},{"id":421,"city_id":81,"branch_id":0,"province_id":31,"name":"Bolaang Mongondow (Bolmong)","key_name":"sulawesi-utara.kabupaten-bolaang-mongondow-bolmong","postal_code":"95755","type":1},{"id":422,"city_id":82,"branch_id":0,"province_id":31,"name":"Bolaang Mongondow Selatan","key_name":"sulawesi-utara.kabupaten-bolaang-mongondow-selatan","postal_code":"95774","type":1},{"id":423,"city_id":83,"branch_id":0,"province_id":31,"name":"Bolaang Mongondow Timur","key_name":"sulawesi-utara.kabupaten-bolaang-mongondow-timur","postal_code":"95783","type":1},{"id":424,"city_id":84,"branch_id":0,"province_id":31,"name":"Bolaang Mongondow Utara","key_name":"sulawesi-utara.kabupaten-bolaang-mongondow-utara","postal_code":"95765","type":1},{"id":425,"city_id":188,"branch_id":0,"province_id":31,"name":"Kepulauan Sangihe","key_name":"sulawesi-utara.kabupaten-kepulauan-sangihe","postal_code":"95819","type":1},{"id":426,"city_id":190,"branch_id":0,"province_id":31,"name":"Kepulauan Siau Tagulandang Biaro (Sitaro)","key_name":"sulawesi-utara.kabupaten-kepulauan-siau-tagulandang-biaro-sitaro","postal_code":"95862","type":1},{"id":427,"city_id":192,"branch_id":0,"province_id":31,"name":"Kepulauan Talaud","key_name":"sulawesi-utara.kabupaten-kepulauan-talaud","postal_code":"95885","type":1},{"id":428,"city_id":204,"branch_id":0,"province_id":31,"name":"Kotamobagu","key_name":"sulawesi-utara.kota-kotamobagu","postal_code":"95711","type":0},{"id":429,"city_id":267,"branch_id":0,"province_id":31,"name":"Manado","key_name":"sulawesi-utara.kota-manado","postal_code":"95247","type":0},{"id":430,"city_id":285,"branch_id":0,"province_id":31,"name":"Minahasa","key_name":"sulawesi-utara.kabupaten-minahasa","postal_code":"95614","type":1},{"id":431,"city_id":286,"branch_id":0,"province_id":31,"name":"Minahasa Selatan","key_name":"sulawesi-utara.kabupaten-minahasa-selatan","postal_code":"95914","type":1},{"id":432,"city_id":287,"branch_id":0,"province_id":31,"name":"Minahasa Tenggara","key_name":"sulawesi-utara.kabupaten-minahasa-tenggara","postal_code":"95995","type":1},{"id":433,"city_id":288,"branch_id":0,"province_id":31,"name":"Minahasa Utara","key_name":"sulawesi-utara.kabupaten-minahasa-utara","postal_code":"95316","type":1},{"id":434,"city_id":485,"branch_id":0,"province_id":31,"name":"Tomohon","key_name":"sulawesi-utara.kota-tomohon","postal_code":"95416","type":0}]},{"id":32,"province_id":32,"name":"Sumatera Barat","key_name":"sumatera-barat","cities":[{"id":435,"city_id":12,"branch_id":0,"province_id":32,"name":"Agam","key_name":"sumatera-barat.kabupaten-agam","postal_code":"26411","type":1},{"id":436,"city_id":93,"branch_id":0,"province_id":32,"name":"Bukittinggi","key_name":"sumatera-barat.kota-bukittinggi","postal_code":"26115","type":0},{"id":437,"city_id":116,"branch_id":0,"province_id":32,"name":"Dharmasraya","key_name":"sumatera-barat.kabupaten-dharmasraya","postal_code":"27612","type":1},{"id":438,"city_id":186,"branch_id":0,"province_id":32,"name":"Kepulauan Mentawai","key_name":"sumatera-barat.kabupaten-kepulauan-mentawai","postal_code":"25771","type":1},{"id":439,"city_id":236,"branch_id":0,"province_id":32,"name":"Lima Puluh Koto\/Kota","key_name":"sumatera-barat.kabupaten-lima-puluh-kotokota","postal_code":"26671","type":1},{"id":440,"city_id":318,"branch_id":0,"province_id":32,"name":"Padang","key_name":"sumatera-barat.kota-padang","postal_code":"25112","type":0},{"id":441,"city_id":321,"branch_id":0,"province_id":32,"name":"Padang Panjang","key_name":"sumatera-barat.kota-padang-panjang","postal_code":"27122","type":0},{"id":442,"city_id":322,"branch_id":0,"province_id":32,"name":"Padang Pariaman","key_name":"sumatera-barat.kabupaten-padang-pariaman","postal_code":"25583","type":1},{"id":443,"city_id":337,"branch_id":0,"province_id":32,"name":"Pariaman","key_name":"sumatera-barat.kota-pariaman","postal_code":"25511","type":0},{"id":444,"city_id":339,"branch_id":0,"province_id":32,"name":"Pasaman","key_name":"sumatera-barat.kabupaten-pasaman","postal_code":"26318","type":1},{"id":445,"city_id":340,"branch_id":0,"province_id":32,"name":"Pasaman Barat","key_name":"sumatera-barat.kabupaten-pasaman-barat","postal_code":"26511","type":1},{"id":446,"city_id":345,"branch_id":0,"province_id":32,"name":"Payakumbuh","key_name":"sumatera-barat.kota-payakumbuh","postal_code":"26213","type":0},{"id":447,"city_id":357,"branch_id":0,"province_id":32,"name":"Pesisir Selatan","key_name":"sumatera-barat.kabupaten-pesisir-selatan","postal_code":"25611","type":1},{"id":448,"city_id":394,"branch_id":0,"province_id":32,"name":"Sawah Lunto","key_name":"sumatera-barat.kota-sawah-lunto","postal_code":"27416","type":0},{"id":449,"city_id":411,"branch_id":0,"province_id":32,"name":"Sijunjung (Sawah Lunto Sijunjung)","key_name":"sumatera-barat.kabupaten-sijunjung-sawah-lunto-sijunjung","postal_code":"27511","type":1},{"id":450,"city_id":420,"branch_id":0,"province_id":32,"name":"Solok","key_name":"sumatera-barat.kabupaten-solok","postal_code":"27365","type":1},{"id":451,"city_id":421,"branch_id":0,"province_id":32,"name":"Solok","key_name":"sumatera-barat.kota-solok","postal_code":"27315","type":0},{"id":452,"city_id":422,"branch_id":0,"province_id":32,"name":"Solok Selatan","key_name":"sumatera-barat.kabupaten-solok-selatan","postal_code":"27779","type":1},{"id":453,"city_id":453,"branch_id":0,"province_id":32,"name":"Tanah Datar","key_name":"sumatera-barat.kabupaten-tanah-datar","postal_code":"27211","type":1}]},{"id":33,"province_id":33,"name":"Sumatera Selatan","key_name":"sumatera-selatan","cities":[{"id":454,"city_id":40,"branch_id":0,"province_id":33,"name":"Banyuasin","key_name":"sumatera-selatan.kabupaten-banyuasin","postal_code":"30911","type":1},{"id":455,"city_id":121,"branch_id":0,"province_id":33,"name":"Empat Lawang","key_name":"sumatera-selatan.kabupaten-empat-lawang","postal_code":"31811","type":1},{"id":456,"city_id":220,"branch_id":0,"province_id":33,"name":"Lahat","key_name":"sumatera-selatan.kabupaten-lahat","postal_code":"31419","type":1},{"id":457,"city_id":242,"branch_id":0,"province_id":33,"name":"Lubuk Linggau","key_name":"sumatera-selatan.kota-lubuk-linggau","postal_code":"31614","type":0},{"id":458,"city_id":292,"branch_id":0,"province_id":33,"name":"Muara Enim","key_name":"sumatera-selatan.kabupaten-muara-enim","postal_code":"31315","type":1},{"id":459,"city_id":297,"branch_id":0,"province_id":33,"name":"Musi Banyuasin","key_name":"sumatera-selatan.kabupaten-musi-banyuasin","postal_code":"30719","type":1},{"id":460,"city_id":298,"branch_id":0,"province_id":33,"name":"Musi Rawas","key_name":"sumatera-selatan.kabupaten-musi-rawas","postal_code":"31661","type":1},{"id":461,"city_id":312,"branch_id":0,"province_id":33,"name":"Ogan Ilir","key_name":"sumatera-selatan.kabupaten-ogan-ilir","postal_code":"30811","type":1},{"id":462,"city_id":313,"branch_id":0,"province_id":33,"name":"Ogan Komering Ilir","key_name":"sumatera-selatan.kabupaten-ogan-komering-ilir","postal_code":"30618","type":1},{"id":463,"city_id":314,"branch_id":0,"province_id":33,"name":"Ogan Komering Ulu","key_name":"sumatera-selatan.kabupaten-ogan-komering-ulu","postal_code":"32112","type":1},{"id":464,"city_id":315,"branch_id":0,"province_id":33,"name":"Ogan Komering Ulu Selatan","key_name":"sumatera-selatan.kabupaten-ogan-komering-ulu-selatan","postal_code":"32211","type":1},{"id":465,"city_id":316,"branch_id":0,"province_id":33,"name":"Ogan Komering Ulu Timur","key_name":"sumatera-selatan.kabupaten-ogan-komering-ulu-timur","postal_code":"32312","type":1},{"id":466,"city_id":324,"branch_id":0,"province_id":33,"name":"Pagar Alam","key_name":"sumatera-selatan.kota-pagar-alam","postal_code":"31512","type":0},{"id":467,"city_id":327,"branch_id":0,"province_id":33,"name":"Palembang","key_name":"sumatera-selatan.kota-palembang","postal_code":"31512","type":0},{"id":468,"city_id":367,"branch_id":0,"province_id":33,"name":"Prabumulih","key_name":"sumatera-selatan.kota-prabumulih","postal_code":"31121","type":0}]},{"id":34,"province_id":34,"name":"Sumatera Utara","key_name":"sumatera-utara","cities":[{"id":469,"city_id":15,"branch_id":0,"province_id":34,"name":"Asahan","key_name":"sumatera-utara.kabupaten-asahan","postal_code":"21214","type":1},{"id":470,"city_id":52,"branch_id":0,"province_id":34,"name":"Batu Bara","key_name":"sumatera-utara.kabupaten-batu-bara","postal_code":"21655","type":1},{"id":471,"city_id":70,"branch_id":0,"province_id":34,"name":"Binjai","key_name":"sumatera-utara.kota-binjai","postal_code":"20712","type":0},{"id":472,"city_id":110,"branch_id":0,"province_id":34,"name":"Dairi","key_name":"sumatera-utara.kabupaten-dairi","postal_code":"22211","type":1},{"id":473,"city_id":112,"branch_id":0,"province_id":34,"name":"Deli Serdang","key_name":"sumatera-utara.kabupaten-deli-serdang","postal_code":"20511","type":1},{"id":474,"city_id":137,"branch_id":0,"province_id":34,"name":"Gunungsitoli","key_name":"sumatera-utara.kota-gunungsitoli","postal_code":"22813","type":0},{"id":475,"city_id":146,"branch_id":0,"province_id":34,"name":"Humbang Hasundutan","key_name":"sumatera-utara.kabupaten-humbang-hasundutan","postal_code":"22457","type":1},{"id":476,"city_id":173,"branch_id":0,"province_id":34,"name":"Karo","key_name":"sumatera-utara.kabupaten-karo","postal_code":"22119","type":1},{"id":477,"city_id":217,"branch_id":0,"province_id":34,"name":"Labuhan Batu","key_name":"sumatera-utara.kabupaten-labuhan-batu","postal_code":"21412","type":1},{"id":478,"city_id":218,"branch_id":0,"province_id":34,"name":"Labuhan Batu Selatan","key_name":"sumatera-utara.kabupaten-labuhan-batu-selatan","postal_code":"21511","type":1},{"id":479,"city_id":219,"branch_id":0,"province_id":34,"name":"Labuhan Batu Utara","key_name":"sumatera-utara.kabupaten-labuhan-batu-utara","postal_code":"21711","type":1},{"id":480,"city_id":229,"branch_id":0,"province_id":34,"name":"Langkat","key_name":"sumatera-utara.kabupaten-langkat","postal_code":"20811","type":1},{"id":481,"city_id":268,"branch_id":0,"province_id":34,"name":"Mandailing Natal","key_name":"sumatera-utara.kabupaten-mandailing-natal","postal_code":"22916","type":1},{"id":482,"city_id":278,"branch_id":0,"province_id":34,"name":"Medan","key_name":"sumatera-utara.kota-medan","postal_code":"20228","type":0},{"id":483,"city_id":307,"branch_id":0,"province_id":34,"name":"Nias","key_name":"sumatera-utara.kabupaten-nias","postal_code":"22876","type":1},{"id":484,"city_id":308,"branch_id":0,"province_id":34,"name":"Nias Barat","key_name":"sumatera-utara.kabupaten-nias-barat","postal_code":"22895","type":1},{"id":485,"city_id":309,"branch_id":0,"province_id":34,"name":"Nias Selatan","key_name":"sumatera-utara.kabupaten-nias-selatan","postal_code":"22865","type":1},{"id":486,"city_id":310,"branch_id":0,"province_id":34,"name":"Nias Utara","key_name":"sumatera-utara.kabupaten-nias-utara","postal_code":"22856","type":1},{"id":487,"city_id":319,"branch_id":0,"province_id":34,"name":"Padang Lawas","key_name":"sumatera-utara.kabupaten-padang-lawas","postal_code":"22763","type":1},{"id":488,"city_id":320,"branch_id":0,"province_id":34,"name":"Padang Lawas Utara","key_name":"sumatera-utara.kabupaten-padang-lawas-utara","postal_code":"22753","type":1},{"id":489,"city_id":323,"branch_id":0,"province_id":34,"name":"Padang Sidempuan","key_name":"sumatera-utara.kota-padang-sidempuan","postal_code":"22727","type":0},{"id":490,"city_id":325,"branch_id":0,"province_id":34,"name":"Pakpak Bharat","key_name":"sumatera-utara.kabupaten-pakpak-bharat","postal_code":"22272","type":1},{"id":491,"city_id":353,"branch_id":0,"province_id":34,"name":"Pematang Siantar","key_name":"sumatera-utara.kota-pematang-siantar","postal_code":"21126","type":0},{"id":492,"city_id":389,"branch_id":0,"province_id":34,"name":"Samosir","key_name":"sumatera-utara.kabupaten-samosir","postal_code":"22392","type":1},{"id":493,"city_id":404,"branch_id":0,"province_id":34,"name":"Serdang Bedagai","key_name":"sumatera-utara.kabupaten-serdang-bedagai","postal_code":"20915","type":1},{"id":494,"city_id":407,"branch_id":0,"province_id":34,"name":"Sibolga","key_name":"sumatera-utara.kota-sibolga","postal_code":"22522","type":0},{"id":495,"city_id":413,"branch_id":0,"province_id":34,"name":"Simalungun","key_name":"sumatera-utara.kabupaten-simalungun","postal_code":"21162","type":1},{"id":496,"city_id":459,"branch_id":0,"province_id":34,"name":"Tanjung Balai","key_name":"sumatera-utara.kota-tanjung-balai","postal_code":"21321","type":0},{"id":497,"city_id":463,"branch_id":0,"province_id":34,"name":"Tapanuli Selatan","key_name":"sumatera-utara.kabupaten-tapanuli-selatan","postal_code":"22742","type":1},{"id":498,"city_id":464,"branch_id":0,"province_id":34,"name":"Tapanuli Tengah","key_name":"sumatera-utara.kabupaten-tapanuli-tengah","postal_code":"22611","type":1},{"id":499,"city_id":465,"branch_id":0,"province_id":34,"name":"Tapanuli Utara","key_name":"sumatera-utara.kabupaten-tapanuli-utara","postal_code":"22414","type":1},{"id":500,"city_id":470,"branch_id":0,"province_id":34,"name":"Tebing Tinggi","key_name":"sumatera-utara.kota-tebing-tinggi","postal_code":"20632","type":0},{"id":501,"city_id":481,"branch_id":0,"province_id":34,"name":"Toba Samosir","key_name":"sumatera-utara.kabupaten-toba-samosir","postal_code":"22316","type":1}]}]